NORAD_CAT_ID,OBJECT_NAME,OBJECT_TYPE,EPOCH,MEAN_MOTION,ECCENTRICITY,INCLINATION,RA_OF_ASC_NODE,ARG_OF_PERICENTER,MEAN_ANOMALY,BSTAR,MEAN_MOTION_DOT,MEAN_MOTION_DDOT,TLE_LINE0,TLE_LINE1,TLE_LINE2,SEMIMAJOR_AXIS,PERIOD,APOGEE,PERIGEE,DECAYED
53976.0,STARLINK-5134,PAYLOAD,2024-08-13 03:10:26,15.0883834,0.0001276,53.2155,259.0377,77.9791,282.1344,-0.00014701,-2.627e-05,0.0,0 STARLINK-5134,1 53976U 22125N   24226.13225330 -.00002627  00000-0 -14701-3 0  9992,2 53976  53.2155 259.0377 0001276  77.9791 282.1344 15.08838340103088,6917.885,95.438,540.633,538.868,0.0
53976.0,STARLINK-5134,PAYLOAD,2024-08-13 11:07:22,15.08837647,0.0001343,53.2155,257.5527,85.8601,274.2545,-0.00016045,-2.84e-05,0.0,0 STARLINK-5134,1 53976U 22125N   24226.46345271 -.00002840  00000-0 -16045-3 0  9995,2 53976  53.2155 257.5527 0001343  85.8601 274.2545 15.08837647103063,6917.888,95.438,540.682,538.824,0.0
53976.0,STARLINK-5134,PAYLOAD,2024-08-14 06:12:00,15.0882515,0.0001401,53.2161,253.9854,89.3783,270.737,-0.00023419,-4.012e-05,0.0,0 STARLINK-5134,1 53976U 22125N   24227.25834250 -.00004012  00000-0 -23419-3 0  9999,2 53976  53.2161 253.9854 0001401  89.3783 270.7370 15.08825150103252,6917.926,95.438,540.76,538.822,0.0
53976.0,STARLINK-5134,PAYLOAD,2024-08-14 07:47:23,15.08826145,0.0001274,53.2162,253.6891,81.5667,278.547,-0.00023932,-4.093e-05,0.0,0 STARLINK-5134,1 53976U 22125N   24227.32458257 -.00004093  00000-0 -23932-3 0  9995,2 53976  53.2162 253.6891 0001274  81.5667 278.5470 15.08826145103199,6917.923,95.438,540.669,538.906,0.0
53976.0,STARLINK-5134,PAYLOAD,2024-08-14 18:55:06,15.08833214,0.0001538,53.2166,251.607,83.0528,277.0639,-0.00014885,-2.656e-05,0.0,0 STARLINK-5134,1 53976U 22125N   24227.78826541 -.00002656  00000-0 -14885-3 0  9990,2 53976  53.2166 251.6070 0001538  83.0528 277.0639 15.08833214103260,6917.901,95.438,540.83,538.702,0.0
53976.0,STARLINK-5134,PAYLOAD,2024-08-15 07:38:11,15.0883428,0.0001468,53.2153,249.2267,78.8419,281.2738,0.00023971,3.528e-05,0.0,0 STARLINK-5134,1 53976U 22125N   24228.31818955  .00003528  00000-0  23971-3 0  9993,2 53976  53.2153 249.2267 0001468  78.8419 281.2738 15.08834280103340,6917.898,95.438,540.778,538.747,0.0
53976.0,STARLINK-5134,PAYLOAD,2024-08-15 18:45:53,15.088412,0.0001396,53.2152,247.1431,82.3575,277.7575,0.00021851,3.191e-05,0.0,0 STARLINK-5134,1 53976U 22125N   24228.78186758  .00003191  00000-0  21851-3 0  9994,2 53976  53.2152 247.1431 0001396  82.3575 277.7575 15.08841200103419,6917.877,95.437,540.707,538.776,0.0
53976.0,STARLINK-5134,PAYLOAD,2024-08-16 07:28:58,15.08850746,0.0001376,53.2148,244.7656,78.0918,282.0229,0.00039031,5.931e-05,0.0,0 STARLINK-5134,1 53976U 22125N   24229.31178496  .00005931  00000-0  39031-3 0  9997,2 53976  53.2148 244.7656 0001376  78.0918 282.0229 15.08850746103495,6917.848,95.437,540.664,538.761,0.0
53976.0,STARLINK-5134,PAYLOAD,2024-08-17 04:08:59,15.08841398,0.0001411,53.2138,240.8983,79.2203,280.8948,8.4204e-05,1.052e-05,0.0,0 STARLINK-5134,1 53976U 22125N   24230.17290782  .00001052  00000-0  84204-4 0  9999,2 53976  53.2138 240.8983 0001411  79.2203 280.8948 15.08841398103693,6917.876,95.437,540.717,538.765,0.0
53976.0,STARLINK-5134,PAYLOAD,2024-08-17 07:19:45,15.08840318,0.000135,53.2142,240.3036,78.3415,281.7728,3.6277e-05,2.89e-06,0.0,0 STARLINK-5134,1 53976U 22125N   24230.30538778  .00000289  00000-0  36277-4 0  9992,2 53976  53.2142 240.3036 0001350  78.3415 281.7728 15.08840318103641,6917.879,95.438,540.678,538.811,0.0
53976.0,STARLINK-5134,PAYLOAD,2024-08-18 05:35:08,15.08847163,0.0001394,53.2153,236.1398,83.1696,276.9454,1.0103e-05,-1.27e-06,0.0,0 STARLINK-5134,1 53976U 22125N   24231.23274238 -.00000127  00000-0  10103-4 0  9995,2 53976  53.2153 236.1398 0001394  83.1696 276.9454 15.08847163103850,6917.858,95.437,540.688,538.759,0.0
53976.0,STARLINK-5134,PAYLOAD,2024-08-19 03:50:33,15.08835896,0.0001385,53.216,231.977,99.2583,260.8566,5.8565e-05,6.44e-06,0.0,0 STARLINK-5134,1 53976U 22125N   24232.16010749  .00000644  00000-0  58565-4 0  9990,2 53976  53.2160 231.9770 0001385  99.2583 260.8566 15.08835896103999,6917.893,95.438,540.716,538.8,0.0
53976.0,STARLINK-5134,PAYLOAD,2024-08-19 07:01:19,15.08835325,0.0001423,53.2165,231.3833,94.7565,265.359,5.5778e-05,6e-06,0.0,0 STARLINK-5134,1 53976U 22125N   24232.29258834  .00000600  00000-0  55778-4 0  9998,2 53976  53.2165 231.3833 0001423  94.7565 265.3590 15.08835325103940,6917.895,95.438,540.744,538.775,0.0
53976.0,STARLINK-5134,PAYLOAD,2024-08-20 05:16:44,15.08833141,0.000143,53.2165,227.2212,97.9285,262.187,-1.0563e-05,-4.56e-06,0.0,0 STARLINK-5134,1 53976U 22125N   24233.21995505 -.00000456  00000-0 -10563-4 0  9998,2 53976  53.2165 227.2212 0001430  97.9285 262.1870 15.08833141104151,6917.901,95.438,540.756,538.777,0.0
53976.0,STARLINK-5134,PAYLOAD,2024-08-20 06:52:07,15.08833077,0.0001429,53.2164,226.9238,97.6494,262.466,-1.2283e-05,-4.83e-06,0.0,0 STARLINK-5134,1 53976U 22125N   24233.28619530 -.00000483  00000-0 -12283-4 0  9997,2 53976  53.2164 226.9238 0001429  97.6494 262.4660 15.08833077104092,6917.902,95.438,540.755,538.778,0.0
53976.0,STARLINK-5134,PAYLOAD,2024-08-21 05:07:30,15.08840866,0.0001375,53.216,222.7598,95.4389,264.676,0.0001191,1.608e-05,0.0,0 STARLINK-5134,1 53976U 22125N   24234.21354913  .00001608  00000-0  11910-3 0  9995,2 53976  53.2160 222.7598 0001375  95.4389 264.6760 15.08840866104303,6917.878,95.437,540.694,538.792,0.0
53976.0,STARLINK-5134,PAYLOAD,2024-08-21 06:42:53,15.08842064,0.0001353,53.2159,222.4623,94.3234,265.7913,0.00012846,1.757e-05,0.0,0 STARLINK-5134,1 53976U 22125N   24234.27978826  .00001757  00000-0  12846-3 0  9990,2 53976  53.2159 222.4623 0001353  94.3234 265.7913 15.08842064104247,6917.874,95.437,540.675,538.803,0.0
53976.0,STARLINK-5134,PAYLOAD,2024-08-22 04:58:18,15.08837881,0.0001319,53.2156,218.2985,93.7425,266.3718,9.3602e-05,1.202e-05,0.0,0 STARLINK-5134,1 53976U 22125N   24235.20715358  .00001202  00000-0  93602-4 0  9998,2 53976  53.2156 218.2985 0001319  93.7425 266.3718 15.08837881104459,6917.887,95.438,540.664,538.839,0.0
